{"epoch":1784762836,"count":18316,"objects":[{"id":"67416","name":"STARLINK-36487","type":"PAYLOAD","l1":"1 67416U 26005N   26203.38757575  .00014336  00000-0  52912-3 0  9996","l2":"2 67416  43.0018 197.5555 0002060 270.1310  89.9306 15.27600425 29290"},{"id":"67417","name":"STARLINK-36374","type":"PAYLOAD","l1":"1 67417U 26005P   26203.30934366  .00027585  00000-0  10078-2 0  9990","l2":"2 67417  43.0029 197.8291 0001422 271.4514  88.6174 15.27593726 29287"},{"id":"67418","name":"STARLINK-36455","type":"PAYLOAD","l1":"1 67418U 26005Q   26203.36701732  .00018176  00000-0  66795-3 0  9990","l2":"2 67418  43.0030 197.3949 0001304 272.9630  87.1073 15.27601610 29294"},{"id":"67419","name":"STARLINK-36424","type":"PAYLOAD","l1":"1 67419U 26005R   26203.41698298  .00028029  00000-0  10232-2 0  9991","l2":"2 67419  42.9989 196.9110 0001601 276.1273  83.9396 15.27613311 29305"},{"id":"67420","name":"STARLINK-35564","type":"PAYLOAD","l1":"1 67420U 26005S   26202.39136425  .00008296  00000-0  31060-3 0  9995","l2":"2 67420  43.0017 202.9736 0001368 265.9806  94.0890 15.27586187 29145"},{"id":"67421","name":"STARLINK-36431","type":"PAYLOAD","l1":"1 67421U 26005T   26202.99911267  .00014381  00000-0  53057-3 0  9999","l2":"2 67421  42.9989 199.8004 0002295 295.1056  64.9557 15.27610721 29234"},{"id":"67422","name":"STARLINK-36418","type":"PAYLOAD","l1":"1 67422U 26005U   26203.40927253  .00013666  00000-0  50505-3 0  9999","l2":"2 67422  42.9981 196.8504 0001611 262.1363  97.9306 15.27589416 29307"},{"id":"67423","name":"STARLINK-36465","type":"PAYLOAD","l1":"1 67423U 26005V   26202.99140645  .00019345  00000-0  71002-3 0  9990","l2":"2 67423  43.0006 199.7428 0005535 302.2231  57.8084 15.27598630 29232"},{"id":"67424","name":"STARLINK-36362","type":"PAYLOAD","l1":"1 67424U 26005W   26202.71572142  .00020386  00000-0  74775-3 0  9999","l2":"2 67424  43.0046 201.1076 0003001 269.5329  90.5179 15.27601654 29198"},{"id":"67425","name":"STARLINK-36447","type":"PAYLOAD","l1":"1 67425U 26005X   26203.29650624  .00026891  00000-0  98188-3 0  9997","l2":"2 67425  43.0013 197.7269 0001948 292.4855  67.5790 15.27622001 29286"},{"id":"67426","name":"STARLINK-36146","type":"PAYLOAD","l1":"1 67426U 26005Y   26203.00424629  .00013335  00000-0  49301-3 0  9993","l2":"2 67426  43.0047 199.8353 0006107 294.0489  65.9723 15.27583134 29229"},{"id":"67427","name":"STARLINK-36459","type":"PAYLOAD","l1":"1 67427U 26005Z   26203.38886099  .00019005  00000-0  69782-3 0  9993","l2":"2 67427  43.0011 197.5596 0001744 274.1360  85.9293 15.27605159 29286"},{"id":"67428","name":"STARLINK-36464","type":"PAYLOAD","l1":"1 67428U 26005AA  26203.29777792  .00018951  00000-0  69595-3 0  9994","l2":"2 67428  43.0035 197.7337 0001641 294.3841  65.6839 15.27602675 29272"},{"id":"67429","name":"STARLINK-36513","type":"PAYLOAD","l1":"1 67429U 26005AB  26203.29136605  .00007893  00000-0  29617-3 0  9991","l2":"2 67429  42.9963 197.6798 0000615  65.7528 294.3388 15.27564343 29272"},{"id":"67430","name":"STARLINK-36515","type":"PAYLOAD","l1":"1 67430U 26005AC  26202.72471802  .00015202  00000-0  56052-3 0  9997","l2":"2 67430  43.0034 201.1768 0002400 268.4027  91.6550 15.27595877 29188"},{"id":"67431","name":"STARLINK-36443","type":"PAYLOAD","l1":"1 67431U 26005AD  26203.34902595  .00022622  00000-0  82846-3 0  9999","l2":"2 67431  42.9985 197.2517 0001383 271.3146  88.7547 15.27604349 29293"},{"id":"67432","name":"STARLINK-36460","type":"PAYLOAD","l1":"1 67432U 26005AE  26202.02602807  .00007582  00000-0  28469-3 0  9996","l2":"2 67432  42.9989 205.3844 0001422 268.8976  91.1713 15.27588560 29073"},{"id":"67433","name":"YAOGAN-50","type":"PAYLOAD","l1":"1 67433U 26006A   26203.42386635  .00000282  00000-0  85033-4 0  9992","l2":"2 67433 142.0424  26.0491 0000666 290.5420  69.5227 13.83246189 26312"},{"id":"67435","name":"HULIANWANG DIGUI-137","type":"PAYLOAD","l1":"1 67435U 26007A   26202.36252123 -.00000106  00000-0  39748-4 0  9999","l2":"2 67435  50.0099 323.2902 0000882 137.5786 222.5154 13.29327210 25330"},{"id":"67436","name":"HULIANWANG DIGUI-138","type":"PAYLOAD","l1":"1 67436U 26007B   26202.75516424 -.00000094  00000-0  64153-4 0  9994","l2":"2 67436  50.0077 321.9971 0000867 136.4007 223.6934 13.29325618 25388"},{"id":"67437","name":"HULIANWANG DIGUI-139","type":"PAYLOAD","l1":"1 67437U 26007C   26203.57359733 -.00000106  00000-0  38538-4 0  9996","l2":"2 67437  50.0047 318.9413 0000832 129.0881 231.0066 13.29328583 25498"},{"id":"67438","name":"HULIANWANG DIGUI-140","type":"PAYLOAD","l1":"1 67438U 26007D   26203.59046278 -.00000096  00000-0  60033-4 0  9999","l2":"2 67438  50.0074 319.0670 0000827 141.2317 218.8615 13.29326337 25498"},{"id":"67439","name":"HULIANWANG DIGUI-141","type":"PAYLOAD","l1":"1 67439U 26007E   26202.73003843 -.00000104  00000-0  42473-4 0  9994","l2":"2 67439  50.0066 321.8480 0000851 138.4142 221.6795 13.29327069 25383"},{"id":"67440","name":"HULIANWANG DIGUI-142","type":"PAYLOAD","l1":"1 67440U 26007F   26203.32315443 -.00000099  00000-0  53495-4 0  9993","l2":"2 67440  50.0141 319.7672 0000845 142.0564 218.0368 13.29326901 25469"},{"id":"67441","name":"HULIANWANG DIGUI-143","type":"PAYLOAD","l1":"1 67441U 26007G   26203.31485308 -.00000104  00000-0  44266-4 0  9994","l2":"2 67441  50.0119 319.6939 0000707 145.4179 214.6739 13.29325183 25461"},{"id":"67442","name":"HULIANWANG DIGUI-144","type":"PAYLOAD","l1":"1 67442U 26007H   26203.60700594 -.00000101  00000-0  50346-4 0  9997","l2":"2 67442  50.0108 318.5553 0000856 145.9995 214.0932 13.29329462 25504"},{"id":"67443","name":"HULIANWANG DIGUI-145","type":"PAYLOAD","l1":"1 67443U 26007J   26203.29814251 -.00000099  00000-0  53592-4 0  9991","l2":"2 67443  50.0111 319.5970 0000801 140.4689 219.6241 13.29326016 25464"},{"id":"67445","name":"STARLINK-36542","type":"PAYLOAD","l1":"1 67445U 26008A   26203.28524121  .00015853  00000-0  58401-3 0  9993","l2":"2 67445  43.0017 165.3900 0001339 267.6076  92.4622 15.27600739 30151"},{"id":"67446","name":"STARLINK-36539","type":"PAYLOAD","l1":"1 67446U 26008B   26203.29937470  .00020834  00000-0  76357-3 0  9995","l2":"2 67446  42.9995 165.4909 0000919 278.0920  81.9827 15.27619100 30154"},{"id":"67447","name":"STARLINK-36440","type":"PAYLOAD","l1":"1 67447U 26008C   26203.30308512  .00029580  00000-0  10782-2 0  9993","l2":"2 67447  43.0009 164.6431 0001836 278.9156  81.1487 15.27639562 30162"}]}