OBJECT_NAME,OBJECT_ID,EPOCH,MEAN_MOTION,ECCENTRICITY,INCLINATION,RA_OF_ASC_NODE,ARG_OF_PERICENTER,MEAN_ANOMALY,EPHEMERIS_TYPE,CLASSIFICATION_TYPE,NORAD_CAT_ID,ELEMENT_SET_NO,REV_AT_EPOCH,BSTAR,MEAN_MOTION_DOT,MEAN_MOTION_DDOT
STARLINK-36487,2026-005N,2026-07-22T09:18:06.544800,15.27600425,.00020599,43.0018,197.5555,270.1310,89.9306,0,U,67416,999,2929,.52912322E-3,.14336E-3,0
STARLINK-36374,2026-005P,2026-07-22T07:25:27.292224,15.27593726,.00014223,43.0029,197.8291,271.4514,88.6174,0,U,67417,999,2928,.1007782E-2,.27585E-3,0
STARLINK-36455,2026-005Q,2026-07-22T08:48:30.296448,15.27601610,.00013038,43.0030,197.3949,272.9630,87.1073,0,U,67418,999,2929,.66795262E-3,.18176E-3,0
STARLINK-36424,2026-005R,2026-07-22T10:00:27.329472,15.27613311,.00016006,42.9989,196.9110,276.1273,83.9396,0,U,67419,999,2930,.10231691E-2,.28029E-3,0
STARLINK-35564,2026-005S,2026-07-21T09:23:33.871200,15.27586187,.00013681,43.0017,202.9736,265.9806,94.0890,0,U,67420,999,2914,.31060005E-3,.8296E-4,0
STARLINK-36431,2026-005T,2026-07-21T23:58:43.334688,15.27610721,.00022954,42.9989,199.8004,295.1056,64.9557,0,U,67421,999,2923,.53057364E-3,.14381E-3,0
STARLINK-36418,2026-005U,2026-07-22T09:49:21.146592,15.27589416,.00016107,42.9981,196.8504,262.1363,97.9306,0,U,67422,999,2930,.50505017E-3,.13666E-3,0
STARLINK-36465,2026-005V,2026-07-21T23:47:37.517280,15.27598630,.00055346,43.0006,199.7428,302.2231,57.8084,0,U,67423,999,2923,.71002076E-3,.19345E-3,0
STARLINK-36362,2026-005W,2026-07-21T17:10:38.330688,15.27601654,.00030008,43.0046,201.1076,269.5329,90.5179,0,U,67424,999,2919,.74774976E-3,.20386E-3,0
STARLINK-36447,2026-005X,2026-07-22T07:06:58.139136,15.27622001,.0001948,43.0013,197.7269,292.4855,67.5790,0,U,67425,999,2928,.98188238E-3,.26891E-3,0
STARLINK-36146,2026-005Y,2026-07-22T00:06:06.879456,15.27583134,.00061072,43.0047,199.8353,294.0489,65.9723,0,U,67426,999,2922,.49300803E-3,.13335E-3,0
STARLINK-36459,2026-005Z,2026-07-22T09:19:57.589536,15.27605159,.00017439,43.0011,197.5596,274.1360,85.9293,0,U,67427,999,2928,.69781809E-3,.19005E-3,0
STARLINK-36464,2026-005AA,2026-07-22T07:08:48.012288,15.27602675,.00016408,43.0035,197.7337,294.3841,65.6839,0,U,67428,999,2927,.69594954E-3,.18951E-3,0
STARLINK-36513,2026-005AB,2026-07-22T06:59:34.026720,15.27564343,.00006149,42.9963,197.6798,65.7528,294.3388,0,U,67429,999,2927,.29617015E-3,.7893E-4,0
STARLINK-36515,2026-005AC,2026-07-21T17:23:35.636928,15.27595877,.00024004,43.0034,201.1768,268.4027,91.6550,0,U,67430,999,2918,.56052008E-3,.15202E-3,0
STARLINK-36443,2026-005AD,2026-07-22T08:22:35.842080,15.27604349,.00013828,42.9985,197.2517,271.3146,88.7547,0,U,67431,999,2929,.82845648E-3,.22622E-3,0
STARLINK-36460,2026-005AE,2026-07-21T00:37:28.825248,15.27588560,.00014218,42.9989,205.3844,268.8976,91.1713,0,U,67432,999,2907,.28468838E-3,.7582E-4,0
YAOGAN-50 01,2026-006A,2026-07-22T10:10:22.052640,13.83246189,.0000666,142.0424,26.0491,290.5420,69.5227,0,U,67433,999,2631,.85033429E-4,.282E-5,0
HULIANWANG DIGUI-137,2026-007A,2026-07-21T08:42:01.834272,13.29327210,.00008819,50.0099,323.2902,137.5786,222.5154,0,U,67435,999,2533,.39747743E-4,-.106E-5,0
HULIANWANG DIGUI-138,2026-007B,2026-07-21T18:07:26.190336,13.29325618,.0000867,50.0077,321.9971,136.4007,223.6934,0,U,67436,999,2538,.64152506E-4,-.94E-6,0
HULIANWANG DIGUI-139,2026-007C,2026-07-22T13:45:58.809312,13.29328583,.00008322,50.0047,318.9413,129.0881,231.0066,0,U,67437,999,2549,.38538238E-4,-.106E-5,0
HULIANWANG DIGUI-140,2026-007D,2026-07-22T14:10:15.984192,13.29326337,.00008272,50.0074,319.0670,141.2317,218.8615,0,U,67438,999,2549,.6003293E-4,-.96E-6,0
HULIANWANG DIGUI-141,2026-007E,2026-07-21T17:31:15.320352,13.29327069,.00008506,50.0066,321.8480,138.4142,221.6795,0,U,67439,999,2538,.42472993E-4,-.104E-5,0
HULIANWANG DIGUI-142,2026-007F,2026-07-22T07:45:20.542752,13.29326901,.00008447,50.0141,319.7672,142.0564,218.0368,0,U,67440,999,2546,.53495267E-4,-.99E-6,0
HULIANWANG DIGUI-143,2026-007G,2026-07-22T07:33:23.306112,13.29325183,.00007068,50.0119,319.6939,145.4179,214.6739,0,U,67441,999,2546,.44266353E-4,-.104E-5,0
HULIANWANG DIGUI-144,2026-007H,2026-07-22T14:34:05.313216,13.29329462,.0000856,50.0108,318.5553,145.9995,214.0932,0,U,67442,999,2550,.50346203E-4,-.101E-5,0
HULIANWANG DIGUI-145,2026-007J,2026-07-22T07:09:19.512864,13.29326016,.00008009,50.0111,319.5970,140.4689,219.6241,0,U,67443,999,2546,.53592282E-4,-.99E-6,0
STARLINK-36542,2026-008A,2026-07-22T06:50:44.840544,15.27600739,.00013389,43.0017,165.3900,267.6076,92.4622,0,U,67445,999,3015,.58400986E-3,.15853E-3,0
STARLINK-36539,2026-008B,2026-07-22T07:11:05.974080,15.27619100,.00009188,42.9995,165.4909,278.0920,81.9827,0,U,67446,999,3015,.7635724E-3,.20834E-3,0
STARLINK-36440,2026-008C,2026-07-22T07:16:26.554368,15.27639562,.00018358,43.0009,164.6431,278.9156,81.1487,0,U,67447,999,3016,.10781652E-2,.2958E-3,0
